     2.100          NAVIGATION                              RINEX VERSION / TYPE
fic2rin                                 09/18/2017 00:06:21 PGM / RUN BY / DATE
                                                            END OF HEADER
26 17  9 17 13 59 44.0 -.423486810178D-03  .106865627458D-10  .000000000000D+00
     .260000000000D+02  .589375000000D+02  .430089343519D-08 -.109205697784D+01
     .288337469101D-05  .189609325025D-02  .116862356663D-04  .515377175140D+04
     .503840000000D+05 -.186264514923D-08 -.350334502873D+00 -.614672899246D-07
     .958352130230D+00  .151000000000D+03 -.879464802382D-02 -.788568561332D-08
     .321441960776D-11  .100000000000D+01  .196700000000D+04  .000000000000D+00
     .240000000000D+01  .000000000000D+00  .745058059692D-08  .260000000000D+02
     .432060000000D+05  .400000000000D+01
 1 17  9 17 14  0  0.0 -.206287950277D-05 -.454747350886D-12  .000000000000D+00
     .920000000000D+02 -.105750000000D+03  .470412451710D-08  .115525900922D+01
    -.532343983650D-05  .705482030753D-02  .552274286747D-05  .515368218613D+04
     .504000000000D+05  .149011611938D-07  .176363280300D+01  .158324837685D-06
     .968268932973D+00  .276593750000D+03  .622908496399D+00 -.843356557757D-08
    -.490734726785D-09  .100000000000D+01  .196700000000D+04  .000000000000D+00
     .240000000000D+01  .000000000000D+00  .558793544769D-08  .920000000000D+02
     .432060000000D+05  .400000000000D+01
 2 17  9 17 14  0  0.0  .328112393618D-03 -.909494701773D-11  .000000000000D+00
     .670000000000D+02 -.107875000000D+03  .513414242907D-08  .155262037865D+01
    -.587664544582D-05  .170661244774D-01  .412948429585D-05  .515358670425D+04
     .504000000000D+05 -.283122062683D-06  .170782942275D+01 -.286847352982D-06
     .947223731419D+00  .300000000000D+03 -.195478051437D+01 -.868143304510D-08
    -.392159192147D-09  .100000000000D+01  .196700000000D+04  .000000000000D+00
     .240000000000D+01  .000000000000D+00 -.204890966415D-07  .670000000000D+02
     .432060000000D+05  .400000000000D+01
 3 17  9 17 14  0  0.0 -.667893327773D-04  .432009983342D-11  .000000000000D+00
     .610000000000D+02 -.316875000000D+02  .429339312277D-08  .217718651484D+00
    -.172108411789D-05  .992740271613D-03  .128317624331D-04  .515366496086D+04
     .504000000000D+05 -.558793544769D-08  .280623787155D+01  .670552253723D-07
     .960630433496D+00  .128250000000D+03  .434210495479D+00 -.786532762247D-08
     .103932900651D-09  .100000000000D+01  .196700000000D+04  .000000000000D+00
     .240000000000D+01  .000000000000D+00  .232830643654D-08  .610000000000D+02
     .432060000000D+05  .400000000000D+01
 4 17  9 17 14  0  0.0  .282768160105D-04  .716227077646D-11  .000000000000D+00
     .420000000000D+02  .864687500000D+02  .486520265522D-08 -.269797810669D+01
     .432506203651D-05  .123341104481D-01  .412762165070D-05  .515366408539D+04
     .504000000000D+05 -.521540641785D-07  .616469990587D+00 -.232830643654D-06
     .957039491873D+00  .300437500000D+03  .439024682386D+00 -.829463121897D-08
     .439304013061D-09  .100000000000D+01  .196700000000D+04  .000000000000D+00
     .240000000000D+01  .630000000000D+02 -.558793544769D-08  .420000000000D+02
     .432060000000D+05  .400000000000D+01
 5 17  9 17 14  0  0.0 -.291168689728D-04  .136424205266D-11  .000000000000D+00
     .480000000000D+02 -.482187500000D+02  .453411743562D-08 -.220072651837D+01
    -.248663127422D-05  .520529469941D-02  .124648213387D-04  .515356404305D+04
     .504000000000D+05  .670552253723D-07  .278788144321D+01 -.372529029846D-07
     .947557181651D+00  .132468750000D+03  .583115244793D+00 -.791675833619D-08
     .134291308058D-09  .100000000000D+01  .196700000000D+04  .000000000000D+00
     .240000000000D+01  .000000000000D+00 -.107102096081D-07  .480000000000D+02
     .432060000000D+05  .400000000000D+01
 6 17  9 17 14  0  0.0  .398110598326D-03  .295585778076D-11  .000000000000D+00
     .200000000000D+02 -.108906250000D+03  .462697844651D-08  .128957482262D+01
    -.569038093090D-05  .564678688534D-03  .473298132420D-05  .515374861717D+04
     .504000000000D+05  .186264514923D-07  .175526915551D+01  .372529029846D-08
     .968021440881D+00  .291156250000D+03 -.109330828774D+01 -.832748973052D-08
    -.445732852277D-09  .100000000000D+01  .196700000000D+04  .000000000000D+00
     .240000000000D+01  .000000000000D+00  .465661287308D-08  .200000000000D+02
     .432060000000D+05  .400000000000D+01
 7 17  9 17 14  0  0.0  .304949935526D-03 -.488853402203D-11  .000000000000D+00
     .590000000000D+02 -.344375000000D+02  .470376735936D-08  .526627761623D+00
    -.170618295670D-05  .110705012921D-01  .725500285625D-05  .515371558189D+04
     .504000000000D+05 -.279396772385D-07 -.136302966709D+01  .249594449997D-06
     .960772241460D+00  .240656250000D+03 -.255996133438D+01 -.825248660633D-08
    -.541808282775D-09  .100000000000D+01  .196700000000D+04  .000000000000D+00
     .240000000000D+01  .000000000000D+00 -.111758708954D-07  .590000000000D+02
     .432060000000D+05  .400000000000D+01
 8 17  9 17 14  0  0.0 -.738161616027D-04 -.136424205266D-11  .000000000000D+00
     .840000000000D+02  .763125000000D+02  .476877006699D-08 -.240982813618D+01
     .411458313465D-05  .261662341654D-02  .347383320332D-05  .515368742752D+04
     .504000000000D+05 -.279396772385D-07  .699638118096D+00 -.204890966415D-07
     .967574920248D+00  .317781250000D+03 -.629576500411D+00 -.836427697714D-08
     .405731186047D-09  .100000000000D+01  .196700000000D+04  .000000000000D+00
     .340000000000D+01  .000000000000D+00  .558793544769D-08  .840000000000D+02
     .432060000000D+05  .400000000000D+01
 9 17  9 17 14  0  0.0  .444164499640D-03  .613908923697D-11  .000000000000D+00
     .690000000000D+02  .457812500000D+02  .496020661252D-08 -.276965234871D+01
     .240467488766D-05  .797168002464D-03  .627897679806D-05  .515376662445D+04
     .504000000000D+05  .279396772385D-07 -.244191904364D+01 -.726431608200D-07
     .953301069090D+00  .256625000000D+03  .187040826192D+01 -.826427281156D-08
     .337514058815D-09  .100000000000D+01  .196700000000D+04  .000000000000D+00
     .240000000000D+01  .000000000000D+00  .931322574615D-09  .690000000000D+02
     .432060000000D+05  .400000000000D+01
10 17  9 17 14  0  0.0  .670212320983D-04  .966338120634D-11  .000000000000D+00
     .700000000000D+02 -.314062500000D+02  .422910473062D-08 -.873483740812D+00
    -.180304050446D-05  .275077484548D-02  .128261744976D-04  .515367747498D+04
     .504000000000D+05  .113621354103D-06  .280260742236D+01 -.447034835815D-07
     .960772577931D+00  .136125000000D+03 -.284978353144D+01 -.781746848608D-08
    -.571452374714D-11  .100000000000D+01  .196700000000D+04  .000000000000D+00
     .240000000000D+01  .000000000000D+00  .186264514923D-08  .700000000000D+02
     .432060000000D+05  .400000000000D+01
11 17  9 17 14  0  0.0 -.716130714864D-03 -.227373675443D-11  .000000000000D+00
     .520000000000D+02 -.501562500000D+02  .661027534450D-08  .551771190662D+00
    -.267662107944D-05  .170853075106D-01  .189989805222D-05  .515372442436D+04
     .504000000000D+05 -.238418579102D-06  .135333686343D+01 -.596046447754D-07
     .901889823880D+00  .315343750000D+03  .169366824408D+01 -.967290291523D-08
    -.183579075377D-09  .100000000000D+01  .196700000000D+04  .000000000000D+00
     .240000000000D+01  .000000000000D+00 -.121071934700D-07  .520000000000D+02
     .432060000000D+05  .400000000000D+01
12 17  9 17 14  0  0.0  .372417271137D-03 -.125055521494D-11  .000000000000D+00
     .310000000000D+02  .505937500000D+02  .374408452758D-08 -.844036730089D-01
     .268407166004D-05  .652891106438D-02  .124126672745D-04  .515372260094D+04
     .504000000000D+05  .167638063431D-07 -.276299880565D+00  .109896063805D-06
     .988861665669D+00  .162093750000D+03  .914377071704D+00 -.766531929132D-08
     .921466954226D-10  .100000000000D+01  .196700000000D+04  .000000000000D+00
     .240000000000D+01  .000000000000D+00 -.125728547573D-07  .310000000000D+02
     .432060000000D+05  .400000000000D+01
13 17  9 17 14  0  0.0 -.915159471333D-04 -.568434188608D-12  .000000000000D+00
     .440000000000D+02  .438750000000D+02  .461197782167D-08  .175267174739D+01
     .224448740482D-05  .349361402914D-02  .577233731747D-05  .515364927101D+04
     .504000000000D+05  .912696123123D-07 -.231397596472D+01 -.484287738800D-07
     .969145716832D+00  .272031250000D+03  .174623492540D+01 -.815319675623D-08
     .363586573412D-09  .100000000000D+01  .196700000000D+04  .000000000000D+00
     .240000000000D+01  .000000000000D+00 -.111758708954D-07  .440000000000D+02
     .432060000000D+05  .400000000000D+01
14 17  9 17 14  0  0.0 -.839191488922D-04 -.102318153949D-11  .000000000000D+00
     .480000000000D+02  .460937500000D+02  .467698052930D-08  .303995901671D+01
     .242888927460D-05  .935036176816D-02  .533461570740D-05  .515368815041D+04
     .504000000000D+05  .726431608200D-07 -.235420045093D+01 -.819563865662D-07
     .961709568184D+00  .274562500000D+03 -.194739429366D+01 -.806783605776D-08
     .327156484524D-09  .100000000000D+01  .196700000000D+04  .000000000000D+00
     .240000000000D+01  .000000000000D+00 -.977888703346D-08  .480000000000D+02
     .432060000000D+05  .400000000000D+01
15 17  9 17 14  0  0.0 -.355878379196D-03 -.341060513165D-12  .000000000000D+00
     .540000000000D+02  .586875000000D+02  .543344061033D-08  .251386442290D+01
     .291131436825D-05  .959236337803D-02  .675767660141D-05  .515361073685D+04
     .504000000000D+05 -.108033418655D-06 -.250634470359D+01 -.150874257088D-06
     .928950935175D+00  .233281250000D+03  .602170555918D+00 -.846678124685D-08
     .449661587353D-09  .100000000000D+01  .196700000000D+04  .000000000000D+00
     .240000000000D+01  .000000000000D+00 -.107102096081D-07  .540000000000D+02
     .432060000000D+05  .400000000000D+01
